50491,ONEWEB-0414,2021,109.2,148.0,+,87.91,Active,1,LEO,Kazakhstan,UK,Commercial,Communications,Soyuz,1 50491U 21132Y   24352.78389139  .00000035  00000+0  55532-4 0  9993,2 50491  87.9108  84.1611 0001783  94.7938 265.3398 13.18688401149611,13.18688401,0.0001783,LEO
50492,ONEWEB-0417,2021,109.2,148.0,+,87.91,Active,1,LEO,Kazakhstan,UK,Commercial,Communications,Soyuz,1 50492U 21132Z   24353.01941983  .00000071  00000+0  14698-3 0  9999,2 50492  87.9112  84.1298 0001917 105.8285 254.3059 13.18684215150912,13.18684215,0.0001917,LEO
50493,ONEWEB-0418,2021,109.2,148.0,+,87.91,Active,1,LEO,Kazakhstan,UK,Commercial,Communications,Soyuz,1 50493U 21132AA  24352.80114483  .00000091  00000+0  19809-3 0  9994,2 50493  87.9114  84.1694 0002155 107.2297 252.9071 13.18689135149652,13.18689135,0.0002155,LEO
50494,ONEWEB-0419,2021,109.2,148.0,+,87.91,Active,1,LEO,Kazakhstan,UK,Commercial,Communications,Soyuz,1 50494U 21132AB  24352.97042467  .00000139  00000+0  31999-3 0  9992,2 50494  87.9109  84.1463 0001852 115.4924 244.6400 13.18687670150885,13.1868767,0.0001852,LEO
50495,ONEWEB-0420,2021,109.2,148.0,+,87.91,Active,1,LEO,Kazakhstan,UK,Commercial,Communications,Soyuz,1 50495U 21132AC  24352.78547572  .00000059  00000+0  11599-3 0  9994,2 50495  87.9108  84.1919 0001435 100.8650 259.2644 13.18684119149562,13.18684119,0.0001435,LEO
50496,ONEWEB-0421,2021,109.2,148.0,+,87.91,Active,1,LEO,Kazakhstan,UK,Commercial,Communications,Soyuz,1 50496U 21132AD  24353.00678279  .00000075  00000+0  15687-3 0  9990,2 50496  87.9117  84.1277 0001760  92.8674 267.2659 13.18683928150932,13.18683928,0.000176,LEO
50497,ONEWEB-0424,2021,109.2,148.0,+,87.91,Active,1,LEO,Kazakhstan,UK,Commercial,Communications,Soyuz,1 50497U 21132AE  24352.81393545  .00000015  00000+0  65274-5 0  9992,2 50497  87.9112  84.1631 0001861 120.8353 239.2963 13.18687563149631,13.18687563,0.0001861,LEO
50498,ONEWEB-0426,2021,109.2,148.0,+,87.91,Active,1,LEO,Kazakhstan,UK,Commercial,Communications,Soyuz,1 50498U 21132AF  24352.77599176  .00000038  00000+0  64739-4 0  9995,2 50498  87.9105  84.1807 0002274  96.2081 263.9310 13.18684377150869,13.18684377,0.0002274,LEO
